KUIPER-00104            
1 65142U 25171L   25300.33336806  .00008798  00000+0  34040-3 0  9991
2 65142  51.8831  34.4326 0005986  52.0790   6.5307 15.26949869  4889
KUIPER-00105            
1 65143U 25171M   25300.33336806  .00002233  00000+0  17280-3 0  9997
2 65143  51.8867  37.2054 0009902  20.6021   3.0160 15.05483965  5694
KUIPER-00106            
1 65144U 25171N   25300.02849383  .00009528  00000+0  86821-3 0  9994
2 65144  51.8944  41.8134 0009053  15.8144 344.3106 14.95691450 12923
KUIPER-00107            
1 65145U 25171P   25300.27251558  .00033985  00000+0  90221-3 0  9996
2 65145  51.8757  34.1042 0005166  39.3560 320.7802 15.37960347 13050
KUIPER-00108            
1 65146U 25171Q   25300.33336806 -.00698323  00000+0 -34022-1 0  9994
2 65146  51.8830  35.0614 0006246  40.1236  43.7714 15.20186770  4638
KUIPER-00109            
1 65147U 25171R   25300.33336806  .00015510  00000+0  49397-3 0  9997
2 65147  51.8778  33.9086 0008901  34.5360 264.7684 15.32705834  5100
KUIPER-00110            
1 65148U 25171S   25300.33336806 -.01186464  00000+0 -10724+0 0  9996
2 65148  51.8917  38.7743 0010609  26.9948 284.7923 14.97863380  5619
KUIPER-00111            
1 65149U 25171T   25300.33336806 -.00017814  00000+0 -22428-2 0  9995
2 65149  51.8994  42.7900 0007782  49.3058 178.1825 14.81205481  5324
