<?xml version="1.0" encoding="UTF-8"?>
<ndm xmlns:xsi="http://www.w3.org/2001/XMLSchema-instance" xsi:noNamespaceSchemaLocation="https://sanaregistry.org/r/ndmxml_unqualified/ndmxml-2.0.0-master-2.0.xsd">
<omm id="CCSDS_OMM_VERS" version="2.0">
<header><CREATION_DATE/><ORIGINATOR/></header><body><segment><metadata><OBJECT_NAME>KUIPER-00104</OBJECT_NAME><OBJECT_ID>2025-171L</OBJECT_ID><CENTER_NAME>EARTH</CENTER_NAME><REF_FRAME>TEME</REF_FRAME><TIME_SYSTEM>UTC</TIME_SYSTEM><MEAN_ELEMENT_THEORY>SGP4</MEAN_ELEMENT_THEORY></metadata><data><meanElements><EPOCH>2025-10-27T08:00:03.000384</EPOCH><MEAN_MOTION>15.26949869</MEAN_MOTION><ECCENTRICITY>.00059869</ECCENTRICITY><INCLINATION>51.8831</INCLINATION><RA_OF_ASC_NODE>34.4326</RA_OF_ASC_NODE><ARG_OF_PERICENTER>52.0790</ARG_OF_PERICENTER><MEAN_ANOMALY>6.5307</MEAN_ANOMALY></meanElements><tleParameters><EPHEMERIS_TYPE>0</EPHEMERIS_TYPE><CLASSIFICATION_TYPE>U</CLASSIFICATION_TYPE><NORAD_CAT_ID>65142</NORAD_CAT_ID><ELEMENT_SET_NO>999</ELEMENT_SET_NO><REV_AT_EPOCH>488</REV_AT_EPOCH><BSTAR>.34039662E-3</BSTAR><MEAN_MOTION_DOT>.8798E-4</MEAN_MOTION_DOT><MEAN_MOTION_DDOT>0</MEAN_MOTION_DDOT></tleParameters></data></segment></body></omm>
<omm id="CCSDS_OMM_VERS" version="2.0">
<header><CREATION_DATE/><ORIGINATOR/></header><body><segment><metadata><OBJECT_NAME>KUIPER-00105</OBJECT_NAME><OBJECT_ID>2025-171M</OBJECT_ID><CENTER_NAME>EARTH</CENTER_NAME><REF_FRAME>TEME</REF_FRAME><TIME_SYSTEM>UTC</TIME_SYSTEM><MEAN_ELEMENT_THEORY>SGP4</MEAN_ELEMENT_THEORY></metadata><data><meanElements><EPOCH>2025-10-27T08:00:03.000384</EPOCH><MEAN_MOTION>15.05483965</MEAN_MOTION><ECCENTRICITY>.00099029</ECCENTRICITY><INCLINATION>51.8867</INCLINATION><RA_OF_ASC_NODE>37.2054</RA_OF_ASC_NODE><ARG_OF_PERICENTER>20.6021</ARG_OF_PERICENTER><MEAN_ANOMALY>3.0160</MEAN_ANOMALY></meanElements><tleParameters><EPHEMERIS_TYPE>0</EPHEMERIS_TYPE><CLASSIFICATION_TYPE>U</CLASSIFICATION_TYPE><NORAD_CAT_ID>65143</NORAD_CAT_ID><ELEMENT_SET_NO>999</ELEMENT_SET_NO><REV_AT_EPOCH>569</REV_AT_EPOCH><BSTAR>.17279524E-3</BSTAR><MEAN_MOTION_DOT>.2233E-4</MEAN_MOTION_DOT><MEAN_MOTION_DDOT>0</MEAN_MOTION_DDOT></tleParameters></data></segment></body></omm>
<omm id="CCSDS_OMM_VERS" version="2.0">
<header><CREATION_DATE/><ORIGINATOR/></header><body><segment><metadata><OBJECT_NAME>KUIPER-00106</OBJECT_NAME><OBJECT_ID>2025-171N</OBJECT_ID><CENTER_NAME>EARTH</CENTER_NAME><REF_FRAME>TEME</REF_FRAME><TIME_SYSTEM>UTC</TIME_SYSTEM><MEAN_ELEMENT_THEORY>SGP4</MEAN_ELEMENT_THEORY></metadata><data><meanElements><EPOCH>2025-10-27T00:41:01.866912</EPOCH><MEAN_MOTION>14.95691450</MEAN_MOTION><ECCENTRICITY>.0009053</ECCENTRICITY><INCLINATION>51.8944</INCLINATION><RA_OF_ASC_NODE>41.8134</RA_OF_ASC_NODE><ARG_OF_PERICENTER>15.8144</ARG_OF_PERICENTER><MEAN_ANOMALY>344.3106</MEAN_ANOMALY></meanElements><tleParameters><EPHEMERIS_TYPE>0</EPHEMERIS_TYPE><CLASSIFICATION_TYPE>U</CLASSIFICATION_TYPE><NORAD_CAT_ID>65144</NORAD_CAT_ID><ELEMENT_SET_NO>999</ELEMENT_SET_NO><REV_AT_EPOCH>1292</REV_AT_EPOCH><BSTAR>.86821435E-3</BSTAR><MEAN_MOTION_DOT>.9528E-4</MEAN_MOTION_DOT><MEAN_MOTION_DDOT>0</MEAN_MOTION_DDOT></tleParameters></data></segment></body></omm>
<omm id="CCSDS_OMM_VERS" version="2.0">
<header><CREATION_DATE/><ORIGINATOR/></header><body><segment><metadata><OBJECT_NAME>KUIPER-00107</OBJECT_NAME><OBJECT_ID>2025-171P</OBJECT_ID><CENTER_NAME>EARTH</CENTER_NAME><REF_FRAME>TEME</REF_FRAME><TIME_SYSTEM>UTC</TIME_SYSTEM><MEAN_ELEMENT_THEORY>SGP4</MEAN_ELEMENT_THEORY></metadata><data><meanElements><EPOCH>2025-10-27T06:32:25.346112</EPOCH><MEAN_MOTION>15.37960347</MEAN_MOTION><ECCENTRICITY>.00051663</ECCENTRICITY><INCLINATION>51.8757</INCLINATION><RA_OF_ASC_NODE>34.1042</RA_OF_ASC_NODE><ARG_OF_PERICENTER>39.3560</ARG_OF_PERICENTER><MEAN_ANOMALY>320.7802</MEAN_ANOMALY></meanElements><tleParameters><EPHEMERIS_TYPE>0</EPHEMERIS_TYPE><CLASSIFICATION_TYPE>U</CLASSIFICATION_TYPE><NORAD_CAT_ID>65145</NORAD_CAT_ID><ELEMENT_SET_NO>999</ELEMENT_SET_NO><REV_AT_EPOCH>1305</REV_AT_EPOCH><BSTAR>.90221398E-3</BSTAR><MEAN_MOTION_DOT>.33985E-3</MEAN_MOTION_DOT><MEAN_MOTION_DDOT>0</MEAN_MOTION_DDOT></tleParameters></data></segment></body></omm>
<omm id="CCSDS_OMM_VERS" version="2.0">
<header><CREATION_DATE/><ORIGINATOR/></header><body><segment><metadata><OBJECT_NAME>KUIPER-00108</OBJECT_NAME><OBJECT_ID>2025-171Q</OBJECT_ID><CENTER_NAME>EARTH</CENTER_NAME><REF_FRAME>TEME</REF_FRAME><TIME_SYSTEM>UTC</TIME_SYSTEM><MEAN_ELEMENT_THEORY>SGP4</MEAN_ELEMENT_THEORY></metadata><data><meanElements><EPOCH>2025-10-27T08:00:03.000384</EPOCH><MEAN_MOTION>15.20186770</MEAN_MOTION><ECCENTRICITY>.00062462</ECCENTRICITY><INCLINATION>51.8830</INCLINATION><RA_OF_ASC_NODE>35.0614</RA_OF_ASC_NODE><ARG_OF_PERICENTER>40.1236</ARG_OF_PERICENTER><MEAN_ANOMALY>43.7714</MEAN_ANOMALY></meanElements><tleParameters><EPHEMERIS_TYPE>0</EPHEMERIS_TYPE><CLASSIFICATION_TYPE>U</CLASSIFICATION_TYPE><NORAD_CAT_ID>65146</NORAD_CAT_ID><ELEMENT_SET_NO>999</ELEMENT_SET_NO><REV_AT_EPOCH>463</REV_AT_EPOCH><BSTAR>-.34021506E-1</BSTAR><MEAN_MOTION_DOT>-.698323E-2</MEAN_MOTION_DOT><MEAN_MOTION_DDOT>0</MEAN_MOTION_DDOT></tleParameters></data></segment></body></omm>
<omm id="CCSDS_OMM_VERS" version="2.0">
<header><CREATION_DATE/><ORIGINATOR/></header><body><segment><metadata><OBJECT_NAME>KUIPER-00109</OBJECT_NAME><OBJECT_ID>2025-171R</OBJECT_ID><CENTER_NAME>EARTH</CENTER_NAME><REF_FRAME>TEME</REF_FRAME><TIME_SYSTEM>UTC</TIME_SYSTEM><MEAN_ELEMENT_THEORY>SGP4</MEAN_ELEMENT_THEORY></metadata><data><meanElements><EPOCH>2025-10-27T08:00:03.000384</EPOCH><MEAN_MOTION>15.32705834</MEAN_MOTION><ECCENTRICITY>.00089014</ECCENTRICITY><INCLINATION>51.8778</INCLINATION><RA_OF_ASC_NODE>33.9086</RA_OF_ASC_NODE><ARG_OF_PERICENTER>34.5360</ARG_OF_PERICENTER><MEAN_ANOMALY>264.7684</MEAN_ANOMALY></meanElements><tleParameters><EPHEMERIS_TYPE>0</EPHEMERIS_TYPE><CLASSIFICATION_TYPE>U</CLASSIFICATION_TYPE><NORAD_CAT_ID>65147</NORAD_CAT_ID><ELEMENT_SET_NO>999</ELEMENT_SET_NO><REV_AT_EPOCH>510</REV_AT_EPOCH><BSTAR>.4939714E-3</BSTAR><MEAN_MOTION_DOT>.1551E-3</MEAN_MOTION_DOT><MEAN_MOTION_DDOT>0</MEAN_MOTION_DDOT></tleParameters></data></segment></body></omm>
<omm id="CCSDS_OMM_VERS" version="2.0">
<header><CREATION_DATE/><ORIGINATOR/></header><body><segment><metadata><OBJECT_NAME>KUIPER-00110</OBJECT_NAME><OBJECT_ID>2025-171S</OBJECT_ID><CENTER_NAME>EARTH</CENTER_NAME><REF_FRAME>TEME</REF_FRAME><TIME_SYSTEM>UTC</TIME_SYSTEM><MEAN_ELEMENT_THEORY>SGP4</MEAN_ELEMENT_THEORY></metadata><data><meanElements><EPOCH>2025-10-27T08:00:03.000384</EPOCH><MEAN_MOTION>14.97863380</MEAN_MOTION><ECCENTRICITY>.00106099</ECCENTRICITY><INCLINATION>51.8917</INCLINATION><RA_OF_ASC_NODE>38.7743</RA_OF_ASC_NODE><ARG_OF_PERICENTER>26.9948</ARG_OF_PERICENTER><MEAN_ANOMALY>284.7923</MEAN_ANOMALY></meanElements><tleParameters><EPHEMERIS_TYPE>0</EPHEMERIS_TYPE><CLASSIFICATION_TYPE>U</CLASSIFICATION_TYPE><NORAD_CAT_ID>65148</NORAD_CAT_ID><ELEMENT_SET_NO>999</ELEMENT_SET_NO><REV_AT_EPOCH>561</REV_AT_EPOCH><BSTAR>-.10723742E+0</BSTAR><MEAN_MOTION_DOT>-.1186464E-1</MEAN_MOTION_DOT><MEAN_MOTION_DDOT>0</MEAN_MOTION_DDOT></tleParameters></data></segment></body></omm>
<omm id="CCSDS_OMM_VERS" version="2.0">
<header><CREATION_DATE/><ORIGINATOR/></header><body><segment><metadata><OBJECT_NAME>KUIPER-00111</OBJECT_NAME><OBJECT_ID>2025-171T</OBJECT_ID><CENTER_NAME>EARTH</CENTER_NAME><REF_FRAME>TEME</REF_FRAME><TIME_SYSTEM>UTC</TIME_SYSTEM><MEAN_ELEMENT_THEORY>SGP4</MEAN_ELEMENT_THEORY></metadata><data><meanElements><EPOCH>2025-10-27T08:00:03.000384</EPOCH><MEAN_MOTION>14.81205481</MEAN_MOTION><ECCENTRICITY>.00077821</ECCENTRICITY><INCLINATION>51.8994</INCLINATION><RA_OF_ASC_NODE>42.7900</RA_OF_ASC_NODE><ARG_OF_PERICENTER>49.3058</ARG_OF_PERICENTER><MEAN_ANOMALY>178.1825</MEAN_ANOMALY></meanElements><tleParameters><EPHEMERIS_TYPE>0</EPHEMERIS_TYPE><CLASSIFICATION_TYPE>U</CLASSIFICATION_TYPE><NORAD_CAT_ID>65149</NORAD_CAT_ID><ELEMENT_SET_NO>999</ELEMENT_SET_NO><REV_AT_EPOCH>532</REV_AT_EPOCH><BSTAR>-.22428405E-2</BSTAR><MEAN_MOTION_DOT>-.17814E-3</MEAN_MOTION_DOT><MEAN_MOTION_DDOT>0</MEAN_MOTION_DDOT></tleParameters></data></segment></body></omm>

</ndm>
